[{"OBJECT_NAME":"STARLINK-5211","OBJECT_ID":"2022-136AM","EPOCH":"2026-03-09T21:23:32.092224","MEAN_MOTION":15.08826312,"ECCENTRICITY":0.0001208,"INCLINATION":53.2176,"RA_OF_ASC_NODE":318.3215,"ARG_OF_PERICENTER":76.9291,"MEAN_ANOMALY":283.1836,"EPHEMERIS_TYPE":0,"CLASSIFICATION_TYPE":"U","NORAD_CAT_ID":54086,"ELEMENT_SET_NO":999,"REV_AT_EPOCH":18722,"BSTAR":-7.5989989e-5,"MEAN_MOTION_DOT":-1.497e-5,"MEAN_MOTION_DDOT":0},{"OBJECT_NAME":"CSC-1","OBJECT_ID":"2023-155G","EPOCH":"2026-03-09T17:46:02.342496","MEAN_MOTION":15.1003596,"ECCENTRICITY":0.00075041,"INCLINATION":97.5446,"RA_OF_ASC_NODE":139.7305,"ARG_OF_PERICENTER":212.9992,"MEAN_ANOMALY":147.077,"EPHEMERIS_TYPE":0,"CLASSIFICATION_TYPE":"U","NORAD_CAT_ID":58022,"ELEMENT_SET_NO":999,"REV_AT_EPOCH":13272,"BSTAR":0.00054556609,"MEAN_MOTION_DOT":8.819e-5,"MEAN_MOTION_DDOT":0}]
